{"type": "FeatureCollection", "features": [ {"type": "Feature", "properties": {"norad_id": 30447, "name": "FENGYUN 1C DEB", "group": "fengyun-1c-debris", "lat": -74.08906106125073, "lon": 5.264971025671024, "alt_km": 721.3383196518125, "timestamp": "2025-12-22T14:45:57.679108+00:00", "meta": {"OBJECT_NAME": "FENGYUN 1C DEB", "OBJECT_ID": "1999-025AFJ", "EPOCH": "2025-12-22T02:44:50.966592", "MEAN_MOTION": 14.56777687, "ECCENTRICITY": 0.00601407, "INCLINATION": 98.9711, "RA_OF_ASC_NODE": 218.3793, "ARG_OF_PERICENTER": 2.899, "MEAN_ANOMALY": 149.8066, "EPHEMERIS_TYPE": 0, "CLASSIFICATION_TYPE": "U", "NORAD_CAT_ID": 30447, "ELEMENT_SET_NO": 999, "REV_AT_EPOCH": 98232, "BSTAR": 0.0026681346, "MEAN_MOTION_DOT": 0.000122, "MEAN_MOTION_DDOT": 0}, "tle": {"line1": "1 30447U 99025AFJ 25356.11447878  .00012200  00000+0  26681-2 0  9993", "line2": "2 30447  98.9711 218.3793 0060140   2.8990 149.8066 14.56777687982323"}}, "geometry": {"type": "Point", "coordinates": [5.264971025671024, -74.08906106125073]}}, {"type": "Feature", "properties": {"norad_id": 30448, "name": "FENGYUN 1C DEB", "group": "fengyun-1c-debris", "lat": -64.23294692349799, "lon": 107.22516253700834, "alt_km": 773.072102678906, "timestamp": "2025-12-22T14:45:57.679119+00:00", "meta": {"OBJECT_NAME": "FENGYUN 1C DEB", "OBJECT_ID": "1999-025AFK", "EPOCH": "2025-12-22T05:16:55.672320", "MEAN_MOTION": 14.3522254, "ECCENTRICITY": 0.00169167, "INCLINATION": 98.8307, "RA_OF_ASC_NODE": 88.034, "ARG_OF_PERICENTER": 341.5047, "MEAN_ANOMALY": 72.426, "EPHEMERIS_TYPE": 0, "CLASSIFICATION_TYPE": "U", "NORAD_CAT_ID": 30448, "ELEMENT_SET_NO": 999, "REV_AT_EPOCH": 97474, "BSTAR": 0.0018808888, "MEAN_MOTION_DOT": 5.346e-05, "MEAN_MOTION_DDOT": 0}, "tle": {"line1": "1 30448U 99025AFK 25356.22008880  .00005346  00000+0  18809-2 0  9998", "line2": "2 30448  98.8307  88.0340 0016916 341.5047  72.4260 14.35222540974746"}}, "geometry": {"type": "Point", "coordinates": [107.22516253700834, -64.23294692349799]}}, {"type": "Feature", "properties": {"norad_id": 30450, "name": "FENGYUN 1C DEB", "group": "fengyun-1c-debris", "lat": -71.89173258012694, "lon": 36.17958607627432, "alt_km": 736.0301720614807, "timestamp": "2025-12-22T14:45:57.679130+00:00", "meta": {"OBJECT_NAME": "FENGYUN 1C DEB", "OBJECT_ID": "1999-025AFM", "EPOCH": "2025-12-22T00:38:07.509984", "MEAN_MOTION": 14.61841509, "ECCENTRICITY": 0.01895387, "INCLINATION": 98.0794, "RA_OF_ASC_NODE": 9.8576, "ARG_OF_PERICENTER": 179.0566, "MEAN_ANOMALY": 248.5153, "EPHEMERIS_TYPE": 0, "CLASSIFICATION_TYPE": "U", "NORAD_CAT_ID": 30450, "ELEMENT_SET_NO": 999, "REV_AT_EPOCH": 99678, "BSTAR": 0.00049546776, "MEAN_MOTION_DOT": 3.146e-05, "MEAN_MOTION_DDOT": 0}, "tle": {"line1": "1 30450U 99025AFM 25356.02647581  .00003146  00000+0  49547-3 0  9996", "line2": "2 30450  98.0794   9.8576 0189538 179.0566 248.5153 14.61841509996780"}}, "geometry": {"type": "Point", "coordinates": [36.17958607627432, -71.89173258012694]}}, {"type": "Feature", "properties": {"norad_id": 30452, "name": "FENGYUN 1C DEB", "group": "fengyun-1c-debris", "lat": -30.654289849307457, "lon": -48.981919078587175, "alt_km": 649.2053632892685, "timestamp": "2025-12-22T14:45:57.679140+00:00", "meta": {"OBJECT_NAME": "FENGYUN 1C DEB", "OBJECT_ID": "1999-025AFP", "EPOCH": "2025-12-19T08:52:52.391712", "MEAN_MOTION": 14.64805367, "ECCENTRICITY": 0.0049499, "INCLINATION": 99.3216, "RA_OF_ASC_NODE": 132.9317, "ARG_OF_PERICENTER": 232.8822, "MEAN_ANOMALY": 154.6222, "EPHEMERIS_TYPE": 0, "CLASSIFICATION_TYPE": "U", "NORAD_CAT_ID": 30452, "ELEMENT_SET_NO": 999, "REV_AT_EPOCH": 98204, "BSTAR": 0.0027554, "MEAN_MOTION_DOT": 0.00014935, "MEAN_MOTION_DDOT": 0}, "tle": {"line1": "1 30452U 99025AFP 25353.37005083  .00014935  00000+0  27554-2 0  9999", "line2": "2 30452  99.3216 132.9317 0049499 232.8822 154.6222 14.64805367982043"}}, "geometry": {"type": "Point", "coordinates": [-48.981919078587175, -30.654289849307457]}}, {"type": "Feature", "properties": {"norad_id": 30453, "name": "FENGYUN 1C DEB", "group": "fengyun-1c-debris", "lat": -62.28533761682706, "lon": 85.54660188153635, "alt_km": 827.6565960918078, "timestamp": "2025-12-22T14:45:57.679150+00:00", "meta": {"OBJECT_NAME": "FENGYUN 1C DEB", "OBJECT_ID": "1999-025AFQ", "EPOCH": "2025-12-21T20:50:02.332320", "MEAN_MOTION": 14.24818642, "ECCENTRICITY": 0.01161285, "INCLINATION": 98.8125, "RA_OF_ASC_NODE": 67.6213, "ARG_OF_PERICENTER": 200.0741, "MEAN_ANOMALY": 224.7161, "EPHEMERIS_TYPE": 0, "CLASSIFICATION_TYPE": "U", "NORAD_CAT_ID": 30453, "ELEMENT_SET_NO": 999, "REV_AT_EPOCH": 97364, "BSTAR": 0.001383374, "MEAN_MOTION_DOT": 3.418e-05, "MEAN_MOTION_DDOT": 0}, "tle": {"line1": "1 30453U 99025AFQ 25355.86808255  .00003418  00000+0  13834-2 0  9998", "line2": "2 30453  98.8125  67.6213 0116128 200.0741 224.7161 14.24818642973640"}}, "geometry": {"type": "Point", "coordinates": [85.54660188153635, -62.28533761682706]}}, {"type": "Feature", "properties": {"norad_id": 30454, "name": "FENGYUN 1C DEB", "group": "fengyun-1c-debris", "lat": -36.458950687705496, "lon": -27.940350895861087, "alt_km": 960.5808439415396, "timestamp": "2025-12-22T14:45:57.679161+00:00", "meta": {"OBJECT_NAME": "FENGYUN 1C DEB", "OBJECT_ID": "1999-025AFR", "EPOCH": "2025-12-21T16:01:30.931968", "MEAN_MOTION": 14.15445519, "ECCENTRICITY": 0.0171239, "INCLINATION": 98.1336, "RA_OF_ASC_NODE": 325.1291, "ARG_OF_PERICENTER": 168.9306, "MEAN_ANOMALY": 8.0009, "EPHEMERIS_TYPE": 0, "CLASSIFICATION_TYPE": "U", "NORAD_CAT_ID": 30454, "ELEMENT_SET_NO": 999, "REV_AT_EPOCH": 96086, "BSTAR": 0.0013749, "MEAN_MOTION_DOT": 3.056e-05, "MEAN_MOTION_DDOT": 0}, "tle": {"line1": "1 30454U 99025AFR 25355.66771912  .00003056  00000+0  13749-2 0  9999", "line2": "2 30454  98.1336 325.1291 0171239 168.9306   8.0009 14.15445519960862"}}, "geometry": {"type": "Point", "coordinates": [-27.940350895861087, -36.458950687705496]}}, {"type": "Feature", "properties": {"norad_id": 30462, "name": "FENGYUN 1C DEB", "group": "fengyun-1c-debris", "lat": 78.50710822236559, "lon": -145.63010031456236, "alt_km": 921.5690581207127, "timestamp": "2025-12-22T14:45:57.679171+00:00", "meta": {"OBJECT_NAME": "FENGYUN 1C DEB", "OBJECT_ID": "1999-025AFZ", "EPOCH": "2025-12-21T10:04:03.191232", "MEAN_MOTION": 14.06272105, "ECCENTRICITY": 0.01389973, "INCLINATION": 98.8174, "RA_OF_ASC_NODE": 343.4402, "ARG_OF_PERICENTER": 225.6687, "MEAN_ANOMALY": 302.7033, "EPHEMERIS_TYPE": 0, "CLASSIFICATION_TYPE": "U", "NORAD_CAT_ID": 30462, "ELEMENT_SET_NO": 999, "REV_AT_EPOCH": 96915, "BSTAR": 0.00018444076, "MEAN_MOTION_DOT": 2.88e-06, "MEAN_MOTION_DDOT": 0}, "tle": {"line1": "1 30462U 99025AFZ 25355.41948138  .00000288  00000+0  18444-3 0  9999", "line2": "2 30462  98.8174 343.4402 0138997 225.6687 302.7033 14.06272105969153"}}, "geometry": {"type": "Point", "coordinates": [-145.63010031456236, 78.50710822236559]}}, {"type": "Feature", "properties": {"norad_id": 30464, "name": "FENGYUN 1C DEB", "group": "fengyun-1c-debris", "lat": -65.41310711737849, "lon": 66.62188506152282, "alt_km": 828.9292569193813, "timestamp": "2025-12-22T14:45:57.679181+00:00", "meta": {"OBJECT_NAME": "FENGYUN 1C DEB", "OBJECT_ID": "1999-025AGB", "EPOCH": "2025-12-21T14:17:58.197408", "MEAN_MOTION": 14.10248811, "ECCENTRICITY": 0.0108519, "INCLINATION": 98.8358, "RA_OF_ASC_NODE": 45.7466, "ARG_OF_PERICENTER": 233.3342, "MEAN_ANOMALY": 285.9468, "EPHEMERIS_TYPE": 0, "CLASSIFICATION_TYPE": "U", "NORAD_CAT_ID": 30464, "ELEMENT_SET_NO": 999, "REV_AT_EPOCH": 97188, "BSTAR": 0.00010882, "MEAN_MOTION_DOT": 1.59e-06, "MEAN_MOTION_DDOT": 0}, "tle": {"line1": "1 30464U 99025AGB 25355.59581247  .00000159  00000+0  10882-3 0  9999", "line2": "2 30464  98.8358  45.7466 0108519 233.3342 285.9468 14.10248811971881"}}, "geometry": {"type": "Point", "coordinates": [66.62188506152282, -65.41310711737849]}}, {"type": "Feature", "properties": {"norad_id": 30465, "name": "FENGYUN 1C DEB", "group": "fengyun-1c-debris", "lat": -75.3112544330204, "lon": -131.33146656125754, "alt_km": 788.1789489362754, "timestamp": "2025-12-22T14:45:57.679193+00:00", "meta": {"OBJECT_NAME": "FENGYUN 1C DEB", "OBJECT_ID": "1999-025AGC", "EPOCH": "2025-12-21T18:04:44.864256", "MEAN_MOTION": 14.33955195, "ECCENTRICITY": 0.00164049, "INCLINATION": 98.829, "RA_OF_ASC_NODE": 84.1539, "ARG_OF_PERICENTER": 2.4326, "MEAN_ANOMALY": 128.8524, "EPHEMERIS_TYPE": 0, "CLASSIFICATION_TYPE": "U", "NORAD_CAT_ID": 30465, "ELEMENT_SET_NO": 999, "REV_AT_EPOCH": 97487, "BSTAR": 0.0013516974, "MEAN_MOTION_DOT": 3.731e-05, "MEAN_MOTION_DDOT": 0}, "tle": {"line1": "1 30465U 99025AGC 25355.75329704  .00003731  00000+0  13517-2 0  9992", "line2": "2 30465  98.8290  84.1539 0016404   2.4326 128.8524 14.33955195974878"}}, "geometry": {"type": "Point", "coordinates": [-131.33146656125754, -75.3112544330204]}}, {"type": "Feature", "properties": {"norad_id": 30466, "name": "FENGYUN 1C DEB", "group": "fengyun-1c-debris", "lat": 22.8343122872916, "lon": -139.85658208928263, "alt_km": 895.1491110235365, "timestamp": "2025-12-22T14:45:57.679203+00:00", "meta": {"OBJECT_NAME": "FENGYUN 1C DEB", "OBJECT_ID": "1999-025AGD", "EPOCH": "2025-12-21T09:24:11.213280", "MEAN_MOTION": 14.22572853, "ECCENTRICITY": 0.01160675, "INCLINATION": 98.6542, "RA_OF_ASC_NODE": 35.2649, "ARG_OF_PERICENTER": 359.1658, "MEAN_ANOMALY": 15.0883, "EPHEMERIS_TYPE": 0, "CLASSIFICATION_TYPE": "U", "NORAD_CAT_ID": 30466, "ELEMENT_SET_NO": 999, "REV_AT_EPOCH": 97474, "BSTAR": 0.00087783506, "MEAN_MOTION_DOT": 2.057e-05, "MEAN_MOTION_DDOT": 0}, "tle": {"line1": "1 30466U 99025AGD 25355.39179645  .00002057  00000+0  87784-3 0  9998", "line2": "2 30466  98.6542  35.2649 0116067 359.1658  15.0883 14.22572853974747"}}, "geometry": {"type": "Point", "coordinates": [-139.85658208928263, 22.8343122872916]}}]}